NORAD_CAT_ID,OBJECT_NAME,OBJECT_TYPE,EPOCH,MEAN_MOTION,ECCENTRICITY,INCLINATION,RA_OF_ASC_NODE,ARG_OF_PERICENTER,MEAN_ANOMALY,BSTAR,MEAN_MOTION_DOT,MEAN_MOTION_DDOT,TLE_LINE0,TLE_LINE1,TLE_LINE2,SEMIMAJOR_AXIS,PERIOD,APOGEE,PERIGEE,DECAYED
54085.0,STARLINK-5166,PAYLOAD,2023-04-18 03:50:45,15.08853781,0.0001211,53.2189,37.0921,86.7389,273.3741,0.00042278,6.45e-05,0.0,0 STARLINK-5166,1 54085U 22136AL  23108.16024405  .00006450  00000-0  42278-3 0  9993,2 54085  53.2189  37.0921 0001211  86.7389 273.3741 15.08853781 27484,6917.838,95.437,540.541,538.866,0.0
54085.0,STARLINK-5166,PAYLOAD,2023-04-19 05:16:55,15.08839947,0.0001163,53.2183,32.3354,91.508,268.6045,0.00049173,7.547e-05,0.0,0 STARLINK-5166,1 54085U 22136AL  23109.22009112  .00007547  00000-0  49173-3 0  9998,2 54085  53.2183  32.3354 0001163  91.5080 268.6045 15.08839947 28117,6917.881,95.438,540.55,538.941,0.0
54085.0,STARLINK-5166,PAYLOAD,2023-04-19 22:46:09,15.08858959,0.0001023,53.2186,29.0644,94.7944,265.3165,0.00071246,0.00011075,0.0,0 STARLINK-5166,1 54085U 22136AL  23109.94872549  .00011075  00000-0  71246-3 0  9996,2 54085  53.2186  29.0644 0001023  94.7944 265.3165 15.08858959 27754,6917.822,95.436,540.395,538.98,0.0
54085.0,STARLINK-5166,PAYLOAD,2023-04-21 00:12:20,15.08831424,0.0001316,53.2177,24.3076,103.6831,256.4307,0.00010313,1.353e-05,0.0,0 STARLINK-5166,1 54085U 22136AL  23111.00857311  .00001353  00000-0  10313-3 0  9992,2 54085  53.2177  24.3076 0001316 103.6831 256.4307 15.08831424 28388,6917.907,95.438,540.682,538.861,0.0
54085.0,STARLINK-5166,PAYLOAD,2023-04-21 17:41:35,15.08835582,0.0001192,53.217,21.0358,114.8695,245.2421,0.00077196,0.00012018,0.0,0 STARLINK-5166,1 54085U 22136AL  23111.73722036  .00012018  00000-0  77196-3 0  9999,2 54085  53.2170  21.0358 0001192 114.8695 245.2421 15.08835582 28025,6917.894,95.438,540.584,538.934,0.0
54085.0,STARLINK-5166,PAYLOAD,2023-04-22 03:13:54,15.08855467,0.0001188,53.2169,19.2541,115.9698,244.1417,0.0010455,0.00016397,0.0,0 STARLINK-5166,1 54085U 22136AL  23112.13465597  .00016397  00000-0  10455-2 0  9998,2 54085  53.2169  19.2541 0001188 115.9698 244.1417 15.08855467 28089,6917.833,95.437,540.52,538.876,0.0
54085.0,STARLINK-5166,PAYLOAD,2023-04-22 23:53:54,15.08863742,0.0001186,53.2169,15.3874,94.9026,265.2102,0.00074455,0.00011589,0.0,0 STARLINK-5166,1 54085U 22136AL  23112.99577076  .00011589  00000-0  74455-3 0  9997,2 54085  53.2169  15.3874 0001186  94.9026 265.2102 15.08863742 28680,6917.808,95.436,540.493,538.852,0.0
54085.0,STARLINK-5166,PAYLOAD,2023-04-23 03:04:40,15.08870172,0.0001196,53.2171,14.7926,96.0395,264.0734,0.00093654,0.00014661,0.0,0 STARLINK-5166,1 54085U 22136AL  23113.12824808  .00014661  00000-0  93654-3 0  9997,2 54085  53.2171  14.7926 0001196  96.0395 264.0734 15.08870172 28231,6917.788,95.436,540.481,538.826,0.0
54085.0,STARLINK-5166,PAYLOAD,2023-04-24 02:55:27,15.08872795,0.0001467,53.2195,10.3317,86.1775,273.9385,0.0013521,0.00021315,0.0,0 STARLINK-5166,1 54085U 22136AL  23114.12184937  .00021315  00000-0  13521-2 0  9998,2 54085  53.2195  10.3317 0001467  86.1775 273.9385 15.08872795 28858,6917.78,95.435,540.66,538.63,0.0
54085.0,STARLINK-5166,PAYLOAD,2023-04-25 02:46:12,15.08882803,0.0001313,53.2183,5.8718,81.4617,278.6524,0.00094132,0.00014742,0.0,0 STARLINK-5166,1 54085U 22136AL  23115.11542488  .00014742  00000-0  94132-3 0  9991,2 54085  53.2183   5.8718 0001313  81.4617 278.6524 15.08882803 29008,6917.75,95.435,540.523,538.706,0.0
54085.0,STARLINK-5166,PAYLOAD,2023-04-26 04:12:27,15.08777488,0.0001043,53.2172,1.1146,98.351,261.76,-0.0010636,-0.00017146,0.0,0 STARLINK-5166,1 54085U 22136AL  23116.17531395 -.00017146  00000-0 -10636-2 0  9992,2 54085  53.2172   1.1146 0001043  98.3510 261.7600 15.08777488 28693,6918.071,95.442,540.658,539.215,0.0
54085.0,STARLINK-5166,PAYLOAD,2023-04-26 20:06:17,15.08816606,5.94e-05,53.2161,358.1435,78.935,281.1709,0.000219,3.197e-05,0.0,0 STARLINK-5166,1 54085U 22136AL  23116.83770710  .00003197  00000-0  21900-3 0  9997,2 54085  53.2161 358.1435 0000594  78.9350 281.1709 15.08816606 28796,6917.952,95.439,540.228,539.406,0.0
54085.0,STARLINK-5166,PAYLOAD,2023-04-27 02:27:49,15.0884202,0.0001853,53.2162,356.955,127.3031,232.813,0.0004845,7.432e-05,0.0,0 STARLINK-5166,1 54085U 22136AL  23117.10266000  .00007432  00000-0  48450-3 0  9995,2 54085  53.2162 356.9550 0001853 127.3031 232.8130 15.08842020 29303,6917.874,95.437,541.021,538.457,0.0
54085.0,STARLINK-5166,PAYLOAD,2023-04-28 03:54:00,15.08864403,8.34e-05,53.2172,352.1925,105.0073,255.1012,0.00071306,0.00011086,0.0,0 STARLINK-5166,1 54085U 22136AL  23118.16250163  .00011086  00000-0  71306-3 0  9991,2 54085  53.2172 352.1925 0000834 105.0073 255.1012 15.08864403 29468,6917.806,95.436,540.248,539.094,0.0
54085.0,STARLINK-5166,PAYLOAD,2023-04-28 08:40:09,15.08851204,7.14e-05,53.217,351.3016,66.452,293.6548,-9.9391e-05,-1.87e-05,0.0,0 STARLINK-5166,1 54085U 22136AL  23118.36122119 -.00001870  00000-0 -99391-4 0  9999,2 54085  53.2170 351.3016 0000714  66.4520 293.6548 15.08851204 29491,6917.846,95.437,540.205,539.217,0.0
54085.0,STARLINK-5166,PAYLOAD,2023-04-29 02:09:24,15.08847954,0.0001034,53.217,348.0312,93.2136,266.8975,-5.7232e-05,-1.199e-05,0.0,0 STARLINK-5166,1 54085U 22136AL  23119.08986300 -.00001199  00000-0 -57232-4 0  9991,2 54085  53.2170 348.0312 0001034  93.2136 266.8975 15.08847954 29134,6917.856,95.437,540.436,539.006,0.0
54085.0,STARLINK-5166,PAYLOAD,2023-04-29 18:03:15,15.08849983,9.49e-05,53.2168,345.0581,78.2458,281.8641,-4.8682e-05,-1.063e-05,0.0,0 STARLINK-5166,1 54085U 22136AL  23119.75225906 -.00001063  00000-0 -48682-4 0  9992,2 54085  53.2168 345.0581 0000949  78.2458 281.8641 15.08849983 29704,6917.85,95.437,540.371,539.058,0.0
54085.0,STARLINK-5166,PAYLOAD,2023-04-29 21:14:01,15.08849696,9.87e-05,53.2167,344.4639,79.2715,280.8389,5.5846e-05,6.01e-06,0.0,0 STARLINK-5166,1 54085U 22136AL  23119.88473888  .00000601  00000-0  55846-4 0  9995,2 54085  53.2167 344.4639 0000987  79.2715 280.8389 15.08849696 29258,6917.851,95.437,540.399,539.033,0.0
54085.0,STARLINK-5166,PAYLOAD,2023-04-30 21:04:48,15.0884207,0.0001134,53.2172,340.0052,60.8335,299.277,0.00014817,2.071e-05,0.0,0 STARLINK-5166,1 54085U 22136AL  23120.87834380  .00002071  00000-0  14817-3 0  9999,2 54085  53.2172 340.0052 0001134  60.8335 299.2770 15.08842070 29879,6917.874,95.437,540.524,538.955,0.0
54085.0,STARLINK-5166,PAYLOAD,2023-05-01 00:15:35,15.08838838,0.0001108,53.2173,339.4075,70.6712,289.44,0.00032194,4.839e-05,0.0,0 STARLINK-5166,1 54085U 22136AL  23121.01082508  .00004839  00000-0  32194-3 0  9995,2 54085  53.2173 339.4075 0001108  70.6712 289.4400 15.08838838 29425,6917.884,95.438,540.515,538.982,0.0
54085.0,STARLINK-5166,PAYLOAD,2023-05-01 20:55:36,15.08838914,9.35e-05,53.2173,335.5394,98.2455,261.8643,-2.3501e-05,-6.62e-06,0.0,0 STARLINK-5166,1 54085U 22136AL  23121.87194453 -.00000662  00000-0 -23501-4 0  9997,2 54085  53.2173 335.5394 0000935  98.2455 261.8643 15.08838914 29555,6917.884,95.438,540.396,539.102,0.0
54085.0,STARLINK-5166,PAYLOAD,2023-05-01 22:30:59,15.0883521,0.0001118,53.2188,335.2426,107.875,252.2365,0.00012885,1.763e-05,0.0,0 STARLINK-5166,1 54085U 22136AL  23121.93818585  .00001763  00000-0  12885-3 0  9996,2 54085  53.2188 335.2426 0001118 107.8750 252.2365 15.08835210 30039,6917.895,95.438,540.533,538.987,0.0
54085.0,STARLINK-5166,PAYLOAD,2023-05-02 00:06:22,15.08844445,9.49e-05,53.2184,334.9456,93.1696,266.9404,2.3712e-05,9e-07,0.0,0 STARLINK-5166,1 54085U 22136AL  23122.00442215  .00000090  00000-0  23712-4 0  9992,2 54085  53.2184 334.9456 0000949  93.1696 266.9404 15.08844445 30048,6917.867,95.437,540.388,539.075,0.0
54085.0,STARLINK-5166,PAYLOAD,2023-05-02 20:46:22,15.08844881,9.67e-05,53.2186,331.0798,89.1595,270.9508,0.00011473,1.539e-05,0.0,0 STARLINK-5166,1 54085U 22136AL  23122.86554015  .00001539  00000-0  11473-3 0  9997,2 54085  53.2186 331.0798 0000967  89.1595 270.9508 15.08844881 29705,6917.865,95.437,540.399,539.062,0.0
54085.0,STARLINK-5166,PAYLOAD,2023-05-03 01:32:31,15.088498,9.54e-05,53.2186,330.1875,88.8222,271.288,0.00015444,2.172e-05,0.0,0 STARLINK-5166,1 54085U 22136AL  23123.06425568  .00002172  00000-0  15444-3 0  9996,2 54085  53.2186 330.1875 0000954  88.8222 271.2880 15.08849800 30200,6917.85,95.437,540.375,539.055,0.0
54085.0,STARLINK-5166,PAYLOAD,2023-05-03 14:15:37,15.08837222,7.41e-05,53.218,327.8083,88.2489,271.8588,6.9133e-05,8.13e-06,0.0,0 STARLINK-5166,1 54085U 22136AL  23123.59418821  .00000813  00000-0  69133-4 0  9993,2 54085  53.2180 327.8083 0000741  88.2489 271.8588 15.08837222 30285,6917.889,95.438,540.266,539.241,0.0
54085.0,STARLINK-5166,PAYLOAD,2023-05-03 19:01:46,15.08840889,7.43e-05,53.2166,326.9174,79.9671,280.1405,7.8465e-05,9.61e-06,0.0,0 STARLINK-5166,1 54085U 22136AL  23123.79290428  .00000961  00000-0  78465-4 0  9998,2 54085  53.2166 326.9174 0000743  79.9671 280.1405 15.08840889 29846,6917.878,95.437,540.257,539.229,0.0
54085.0,STARLINK-5166,PAYLOAD,2023-05-04 01:23:19,15.08848218,8.43e-05,53.2168,325.7271,92.1133,267.9956,0.0001673,2.376e-05,0.0,0 STARLINK-5166,1 54085U 22136AL  23124.05786009  .00002376  00000-0  16730-3 0  9991,2 54085  53.2168 325.7271 0000843  92.1133 267.9956 15.08848218 30350,6917.855,95.437,540.303,539.137,0.0
54085.0,STARLINK-5166,PAYLOAD,2023-05-04 20:27:56,15.08847235,7.27e-05,53.2162,322.1601,92.6717,267.4359,7.1266e-05,8.47e-06,0.0,0 STARLINK-5166,1 54085U 22136AL  23124.85274014  .00000847  00000-0  71266-4 0  9994,2 54085  53.2162 322.1601 0000727  92.6717 267.4359 15.08847235 30008,6917.858,95.437,540.226,539.22,0.0
54085.0,STARLINK-5166,PAYLOAD,2023-05-04 22:03:20,15.0884449,0.0001076,53.2186,321.8658,112.5822,247.5284,6.0854e-05,6.81e-06,0.0,0 STARLINK-5166,1 54085U 22136AL  23124.91898177  .00000681  00000-0  60854-4 0  9990,2 54085  53.2186 321.8658 0001076 112.5822 247.5284 15.08844490 30487,6917.867,95.437,540.476,538.987,0.0
